STARLINK-11741 [DTC]    
1 64064U 25107A   25205.88149285  .00336172  00000+0  25136-2 0  9994
2 64064  42.9972  31.9372 0001682 296.1343  63.9352 15.70889541 11463
STARLINK-11709 [DTC]    
1 64065U 25107B   25205.92382508  .00277017  00000+0  20784-2 0  9993
2 64065  43.0024  31.3861 0005608 272.9539  87.0687 15.70974870 11471
STARLINK-11737 [DTC]    
1 64066U 25107C   25205.90790793  .00181137  00000+0  13822-2 0  9993
2 64066  42.9992  31.2579 0001647 274.3556  85.7124 15.70881125 11474
STARLINK-11726 [DTC]    
1 64067U 25107D   25205.89728902  .00180149  00000+0  13751-2 0  9998
2 64067  42.9988  31.1719 0001767 267.7693  92.2972 15.70876465 11471
STARLINK-11700 [DTC]    
1 64068U 25107E   25205.93536540  .00109437  00000+0  84502-3 0  9993
2 64068  42.9985  31.4782 0001722 280.7438  79.3236 15.70844098 11471
STARLINK-11649 [DTC]    
1 64069U 25107F   25205.88679900  .00204480  00000+0  15556-2 0  9992
2 64069  42.9979  31.9809 0002336 273.8154  86.2446 15.70878392 11463
STARLINK-11713 [DTC]    
1 64070U 25107G   25205.91852438  .00231131  00000+0  17501-2 0  9992
2 64070  42.9970  31.3392 0001747 267.3857  92.6811 15.70908166 11471
STARLINK-11719 [DTC]    
1 64071U 25107H   25205.93445442  .00125380  00000+0  96571-3 0  9991
2 64071  42.9974  31.4699 0001411 279.1056  80.9652 15.70845552 11479
STARLINK-11733 [DTC]    
1 64072U 25107J   25205.90259940  .00251255  00000+0  18981-2 0  9994
2 64072  42.9974  31.2127 0001596 281.4536  78.6152 15.70901185 11471
STARLINK-11729 [DTC]    
1 64073U 25107K   25205.87617724  .00202396  00000+0  15394-2 0  9996
2 64073  43.0022  31.8972 0003057 271.4780  88.5737 15.70888873 11462
STARLINK-11730 [DTC]    
1 64074U 25107L   25205.92914537  .00119909  00000+0  92548-3 0  9999
2 64074  42.9976  31.4286 0001599 278.3012  81.7674 15.70815809 11471
STARLINK-11723 [DTC]    
1 64075U 25107M   25205.53171710  .00199668  00000+0  15151-2 0  9999
2 64075  42.9975  33.6016 0005315 289.9140  70.1154 15.70943455 11324
STARLINK-11715 [DTC]    
1 64076U 25107N   25205.89198072  .00300406  00000+0  22541-2 0  9994
2 64076  42.9968  31.1271 0001766 273.9072  86.1594 15.70913140 11475
STARLINK-34201          
1 64077U 25107P   25205.92557346  .00024536  00000+0  89836-3 0  9990
2 64077  43.0004  48.1233 0001195 278.7933  81.2783 15.27573165 10195
STARLINK-34190          
1 64078U 25107Q   25205.57294319  .00029369  00000+0  10722-2 0  9996
2 64078  42.9977  49.7754 0000309 196.8168 163.2673 15.27589826 11050
STARLINK-34168          
1 64079U 25107R   25205.62033894  .00029479  00000+0  10768-2 0  9994
2 64079  43.0011  49.2703 0000926 249.3938 110.6814 15.27570616 11224
STARLINK-34098          
1 64080U 25107S   25205.56265922  .00021040  00000+0  77181-3 0  9997
2 64080  42.9967  49.7003 0000294 338.6085  21.4755 15.27584838 11218
STARLINK-34180          
1 64081U 25107T   25205.58449860 -.00001712  00000+0 -52706-4 0  9998
2 64081  42.9990  49.8597 0002473 266.3991  93.6577 15.27571266 11223
STARLINK-34171          
1 64082U 25107U   25205.61647880  .00012906  00000+0  47802-3 0  9990
2 64082  42.9998  49.2385 0001382 257.3485 102.7212 15.27557649 11224
STARLINK-34126          
1 64083U 25107V   25205.92172111  .00030932  00000+0  11290-2 0  9995
2 64083  42.9985  48.0889 0001685 284.0012  76.0652 15.27575040 10197
STARLINK-34157          
1 64084U 25107W   25205.56008866  .00024230  00000+0  88690-3 0  9994
2 64084  42.9995  49.6774 0001012 245.6566 114.4180 15.27588759 11218
STARLINK-34140          
1 64085U 25107X   25205.58063123  .00020428  00000+0  74885-3 0  9990
2 64085  42.9981  49.8276 0001087 274.5629  85.5099 15.27622000 11211
STARLINK-34132          
1 64086U 25107Y   25205.91786045  .00026374  00000+0  96427-3 0  9995
2 64086  43.0026  48.0618 0002338 259.4952 100.5636 15.27587232 11252
2025-108A               
1 64087U 25108A   25205.82605285  .00006487  00000+0  37849-3 0  9999
2 64087  97.5124 280.6987 0011099  77.8716 282.3757 15.12234190  9787
2025-108B               
1 64088U 25108B   25205.89181506  .00009196  00000+0  51873-3 0  9995
2 64088  97.5085 280.7333 0015082  69.7539 290.5312 15.13290014  9752
2025-108C               
1 64089U 25108C   25205.89994128  .00006732  00000+0  38293-3 0  9992
2 64089  97.5051 280.6927 0018503  61.4359 298.8732 15.13042139  9754
2025-108D               
1 64090U 25108D   25205.94033739  .00005569  00000+0  30738-3 0  9995
2 64090  97.5051 280.7948 0014854  64.9130 295.3641 15.14254226  9765
2025-108E               
1 64091U 25108E   25205.87650179  .00011027  00000+0  60904-3 0  9995
2 64091  97.5049 280.7219 0016291  66.1949 294.0989 15.13975009  9751
2025-108F               
1 64092U 25108F   25205.93383326  .00012350  00000+0  67569-3 0  9994
2 64092  97.5045 280.7941 0016395  69.9850 290.3146 15.14283211  9760
COSMOS 2588             
1 64095U 25109A   25205.95059955  .00006722  00000+0  22982-3 0  9994
2 64095  72.9698 229.6649 0006176 153.0010 207.1508 15.30510254  9586
STARLINK-34178          
1 64096U 25110A   25205.84400092  .00045432  00000+0  11385-2 0  9992
2 64096  53.1603  11.8065 0001094  89.0682 271.0448 15.39634117 10909
STARLINK-34174          
1 64097U 25110B   25205.83979085  .00040403  00000+0  10147-2 0  9993
2 64097  53.1604  12.4976 0001386  92.6372 267.4792 15.39619981 10890
STARLINK-34146          
1 64098U 25110C   25205.89972377  .00049514  00000+0  12386-2 0  9996
2 64098  53.1585  12.1599 0001221  68.5942 291.5193 15.39649552 10902
STARLINK-34074          
1 64099U 25110D   25205.91668981  .00083134  00000+0  20689-2 0  9994
2 64099  53.1592  12.0291 0001313  90.9811  28.9808 15.39573333  5907
STARLINK-34082          
1 64100U 25110E   25205.84443574  .00055021  00000+0  13751-2 0  9994
2 64100  53.1597  12.5270 0001117  84.7664 275.3468 15.39631151 10893
STARLINK-34072          
1 64101U 25110F   25205.83945296  .00035614  00000+0  89608-3 0  9993
2 64101  53.1601  12.4943 0001250  79.4130 280.7016 15.39623271 10896
STARLINK-34104          
1 64102U 25110G   25205.90005921  .00046860  00000+0  11735-2 0  9994
2 64102  53.1596  12.1611 0001102  76.3267 283.7860 15.39640840 10905
STARLINK-34179          
1 64103U 25110H   25205.89541658  .00040420  00000+0  10146-2 0  9996
2 64103  53.1593  12.1305 0001140  83.8944 276.2191 15.39635976 10908
STARLINK-34176          
1 64104U 25110J   25205.91668981  .00084896  00000+0  21123-2 0  9991
2 64104  53.1593  11.9799 0001239  91.1412  52.7030 15.39569811  5901
STARLINK-33949          
1 64105U 25110K   25205.76061135  .00045555  00000+0  11418-2 0  9998
2 64105  53.1595  12.7099 0001214  76.3112 283.8028 15.39626884 10781
STARLINK-33970          
1 64106U 25110L   25205.88579341  .00038600  00000+0  96957-3 0  9990
2 64106  53.1594  12.0681 0001200  86.5897 273.5245 15.39636378 10909
STARLINK-33912          
1 64107U 25110M   25205.88148639  .00033934  00000+0  85417-3 0  9997
2 64107  53.1596  12.0413 0001003  72.2310 287.8805 15.39633786 10908
STARLINK-34156          
1 64108U 25110N   25205.74667655  .00043538  00000+0  10923-2 0  9997
2 64108  53.1603  12.6207 0001216  83.7549 276.3594 15.39617500 10782
STARLINK-34124          
1 64109U 25110P   25205.87220009  .00048059  00000+0  12033-2 0  9997
2 64109  53.1602  11.9822 0001244  82.5986 277.5160 15.39634849 10901
STARLINK-34145          
1 64110U 25110Q   25205.75630001  .00026849  00000+0  67893-3 0  9991
2 64110  53.1591  12.6808 0001183  80.5914 279.5224 15.39615703 10780
STARLINK-34148          
1 64111U 25110R   25205.87186780  .00037978  00000+0  95284-3 0  9995
2 64111  53.1602  11.9790 0000923  78.0024 282.1084 15.39679642 10901
STARLINK-34136          
1 64112U 25110S   25205.74701336  .00043079  00000+0  10804-2 0  9995
2 64112  53.1598  12.6214 0001068  77.6715 282.4410 15.39633484 10885
STARLINK-33839          
1 64113U 25110T   25205.73739247  .00030944  00000+0  78040-3 0  9991
2 64113  53.1603  12.5603 0001199  75.1992 284.9146 15.39621283 10785
STARLINK-34064          
1 64114U 25110U   25205.75132294  .00047725  00000+0  11955-2 0  9999
2 64114  53.1598  12.6494 0001328  86.0365 274.0791 15.39623738 10780
STARLINK-34067          
1 64115U 25110V   25205.73308071  .00039512  00000+0  99248-3 0  9993
2 64115  53.1598  12.5353 0001325  75.9189 284.1963 15.39625381 10781
STARLINK-34080          
1 64116U 25110W   25205.86295722 -.01553824  00000+0 -46295-1 0  9998
2 64116  53.1597  11.9221 0008763 142.2009 217.9612 15.37405741 10903
STARLINK-34122          
1 64117U 25110X   25205.72843796  .00022693  00000+0  57569-3 0  9994
2 64117  53.1600  12.5053 0001005  73.7584 286.3532 15.39615970 10783
STARLINK-33964          
1 64118U 25110Y   25205.86709307  .01705626  00000+0  35859-1 0  9990
2 64118  53.1601  11.9486 0013469 351.7941   8.2842 15.41821746 10903
STARLINK-34160          
1 64119U 25110Z   25205.72810152  .00017303  00000+0  44148-3 0  9997
2 64119  53.1599  12.5022 0001043  69.0618 291.0498 15.39626667 10785
STARLINK-34151          
1 64120U 25110AA  25205.84896252  .00038889  00000+0  97541-3 0  9994
2 64120  53.1601  11.8333 0001094  77.8448 282.2679 15.39677239 10900
STARLINK-34189          
1 64121U 25110AB  25205.84864415  .00053789  00000+0  13442-2 0  9994
2 64121  53.1605  11.8330 0001355  51.0879 309.0247 15.39643154 10902
STARLINK-33991          
1 64122U 25110AC  25205.72379851  .00037731  00000+0  94865-3 0  9995
2 64122  53.1608  12.4755 0001345  87.6536 272.4623 15.39617695 10786
STARLINK-11727 [DTC]    
1 64123U 25111A   25205.54135962  .00173002  00000+0  13240-2 0  9999
2 64123  42.9990 269.3880 0001975 273.3017  86.7625 15.70837102 10753
STARLINK-11724 [DTC]    
1 64124U 25111B   25205.25516660  .00275478  00000+0  20829-2 0  9997
2 64124  42.9980 270.6615 0001938 258.7985 101.2665 15.70806378 10707
